NORAD_CAT_ID,OBJECT_NAME,OBJECT_TYPE,EPOCH,MEAN_MOTION,ECCENTRICITY,INCLINATION,RA_OF_ASC_NODE,ARG_OF_PERICENTER,MEAN_ANOMALY,BSTAR,MEAN_MOTION_DOT,MEAN_MOTION_DDOT,TLE_LINE0,TLE_LINE1,TLE_LINE2,SEMIMAJOR_AXIS,PERIOD,APOGEE,PERIGEE,DECAYED
51790.0,STARLINK-3631,PAYLOAD,2022-11-07 16:27:33,15.08829163,0.0001925,53.2183,56.9657,41.9065,318.2074,2.7826e-05,1.55e-06,0.0,0 STARLINK-3631,1 51790U 22017Y   22311.68580506  .00000155  00000-0  27826-4 0  9991,2 51790  53.2183  56.9657 0001925  41.9065 318.2074 15.08829163 40097,6917.9140000000025,95.438,541.11,538.447,0.0
51790.0,STARLINK-3631,PAYLOAD,2022-11-08 06:46:00,15.08848853,0.0001972,53.2186,54.2895,40.3892,319.7246,0.00018301,2.626e-05,0.0,0 STARLINK-3631,1 51790U 22017Y   22312.28194680  .00002626  00000-0  18301-3 0  9994,2 51790  53.2186  54.2895 0001972  40.3892 319.7246 15.08848853 40182,6917.853,95.437,541.0830000000002,538.354,0.0
51790.0,STARLINK-3631,PAYLOAD,2022-11-08 09:56:46,15.08852633,0.00021,53.2189,53.6957,41.3811,318.7340000000001,0.00022171,3.243e-05,0.0,0 STARLINK-3631,1 51790U 22017Y   22312.41442179  .00003243  00000-0  22171-3 0  9994,2 51790  53.2189  53.6957 0002100  41.3811 318.7340 15.08852633 40201,6917.842,95.437,541.16,538.254,0.0
51790.0,STARLINK-3631,PAYLOAD,2022-11-09 12:58:20,15.08807396,0.0001989,53.2185,48.6388,45.0272,315.0881,-0.00055855,-9.159e-05,0.0,0 STARLINK-3631,1 51790U 22017Y   22313.54051335 -.00009159  00000-0 -55855-3 0  9998,2 51790  53.2185  48.6388 0001989  45.0272 315.0881 15.08807396 40379,6917.98,95.44,541.221,538.469,0.0
51790.0,STARLINK-3631,PAYLOAD,2022-11-09 16:09:06,15.08809148,0.0002067,53.2189,48.0451,48.7868,311.3302,-0.00052129,-8.568e-05,0.0,0 STARLINK-3631,1 51790U 22017Y   22313.67299424 -.00008568  00000-0 -52129-3 0  9999,2 51790  53.2189  48.0451 0002067  48.7868 311.3302 15.08809148 40393,6917.975,95.44,541.27,538.41,0.0
51790.0,STARLINK-3631,PAYLOAD,2022-11-10 12:49:07,15.088393,0.0002122,53.22,44.1814,45.1829,314.9335,-0.00026578,-4.516e-05,0.0,0 STARLINK-3631,1 51790U 22017Y   22314.53411220 -.00004516  00000-0 -26578-3 0  9993,2 51790  53.2200  44.1814 0002122  45.1829 314.9335 15.08839300 40520,6917.8830000000025,95.438,541.216,538.28,0.0
51790.0,STARLINK-3631,PAYLOAD,2022-11-10 15:59:53,15.08836088,0.000207,53.2194,43.5858,46.2069,313.9094,-0.00028711,-4.854e-05,0.0,0 STARLINK-3631,1 51790U 22017Y   22314.66659475 -.00004854  00000-0 -28711-3 0  9999,2 51790  53.2194  43.5858 0002070  46.2069 313.9094 15.08836088 40546,6917.892,95.438,541.189,538.325,0.0
51790.0,STARLINK-3631,PAYLOAD,2022-11-11 12:39:55,15.08814737,0.0002095,53.218,39.7199,36.5668,323.5467,-5.7763e-05,-1.207e-05,0.0,0 STARLINK-3631,1 51790U 22017Y   22315.52772765 -.00001207  00000-0 -57763-4 0  9992,2 51790  53.2180  39.7199 0002095  36.5668 323.5467 15.08814737 40672,6917.958000000001,95.439,541.2719999999998,538.373,0.0
51790.0,STARLINK-3631,PAYLOAD,2022-11-11 17:26:05,15.08817325,0.0002155,53.2175,38.8275,33.9787,326.1342,-4.7074e-05,-1.037e-05,0.0,0 STARLINK-3631,1 51790U 22017Y   22315.72644897 -.00001037  00000-0 -47074-4 0  9993,2 51790  53.2175  38.8275 0002155  33.9787 326.1342 15.08817325 40702,6917.95,95.439,541.306,538.3240000000002,0.0
51790.0,STARLINK-3631,PAYLOAD,2022-11-12 06:09:10,15.08826146,0.0002183,53.2173,36.4485,36.2516,323.8624,0.00014859,2.077e-05,0.0,0 STARLINK-3631,1 51790U 22017Y   22316.25636927  .00002077  00000-0  14859-3 0  9994,2 51790  53.2173  36.4485 0002183  36.2516 323.8624 15.08826146 40780,6917.9230000000025,95.438,541.298,538.278,0.0
51790.0,STARLINK-3631,PAYLOAD,2022-11-12 12:30:42,15.08838562,0.0002073,53.2176,35.2595,52.5391,307.579,0.00033434,5.037e-05,0.0,0 STARLINK-3631,1 51790U 22017Y   22316.52132756  .00005037  00000-0  33434-3 0  9994,2 51790  53.2176  35.2595 0002073  52.5391 307.5790 15.08838562 40825,6917.885,95.438,541.184,538.316,0.0
51790.0,STARLINK-3631,PAYLOAD,2022-11-12 14:06:05,15.08851542,0.0001933,53.2171,34.9617,43.752,316.3626,0.00054076,8.331e-05,0.0,0 STARLINK-3631,1 51790U 22017Y   22316.58756036  .00008331  00000-0  54076-3 0  9998,2 51790  53.2171  34.9617 0001933  43.7520 316.3626 15.08851542 40831,6917.845,95.437,541.047,538.373,0.0
51790.0,STARLINK-3631,PAYLOAD,2022-11-13 10:46:07,15.08819793,0.0002232,53.2164,31.0964,37.7013,322.4135,-9.7533e-06,-4.43e-06,0.0,0 STARLINK-3631,1 51790U 22017Y   22317.44869645 -.00000443  00000-0 -97533-5 0  9990,2 51790  53.2164  31.0964 0002232  37.7013 322.4135 15.08819793 40968,6917.941999999999,95.439,541.351,538.263,0.0
51790.0,STARLINK-3631,PAYLOAD,2022-11-13 17:07:38,15.08835636,0.0002604,53.2158,29.9073,39.9076,320.2107,-0.00064538,-0.00010544,0.0,0 STARLINK-3631,1 51790U 22017Y   22317.71364271 -.00010544  00000-0 -64538-3 0  9995,2 51790  53.2158  29.9073 0002604  39.9076 320.2107 15.08835636 41009,6917.894,95.438,541.56,537.957,0.0
51790.0,STARLINK-3631,PAYLOAD,2022-11-14 10:36:53,15.08842241,0.000226,53.2155,26.6364,35.0576,325.0565,0.0011606,0.00018233,0.0,0 STARLINK-3631,1 51790U 22017Y   22318.44229017  .00018233  00000-0  11606-2 0  9992,2 51790  53.2155  26.6364 0002260  35.0576 325.0565 15.08842241 41116,6917.874,95.437,541.302,538.175,0.0
51790.0,STARLINK-3631,PAYLOAD,2022-11-14 16:58:26,15.08851576,0.0002251,53.2155,25.4467,35.3978,324.7163,0.001079,0.00016932,0.0,0 STARLINK-3631,1 51790U 22017Y   22318.70724864  .00016932  00000-0  10790-2 0  9998,2 51790  53.2155  25.4467 0002251  35.3978 324.7163 15.08851576 41151,6917.845,95.437,541.2669999999998,538.153,0.0
51790.0,STARLINK-3631,PAYLOAD,2022-11-14 21:44:35,15.08850008,0.0002276,53.2155,24.5545,35.8531,324.2614,0.00076275,0.00011875,0.0,0 STARLINK-3631,1 51790U 22017Y   22318.90596793  .00011875  00000-0  76275-3 0  9990,2 51790  53.2155  24.5545 0002276  35.8531 324.2614 15.08850008 41183,6917.85,95.437,541.289,538.14,0.0
51790.0,STARLINK-3631,PAYLOAD,2022-11-15 12:03:03,15.08845186,0.0002223,53.2153,21.8784,36.4482,323.6662,0.00026161,3.878e-05,0.0,0 STARLINK-3631,1 51790U 22017Y   22319.50212697  .00003878  00000-0  26161-3 0  9998,2 51790  53.2153  21.8784 0002223  36.4482 323.6662 15.08845186 41277,6917.865,95.437,541.2669999999998,538.192,0.0
51790.0,STARLINK-3631,PAYLOAD,2022-11-15 18:24:36,15.08837261,0.0002167,53.2149,20.6891,36.8677,323.2464,-5.7881e-05,-1.209e-05,0.0,0 STARLINK-3631,1 51790U 22017Y   22319.76708896 -.00001209  00000-0 -57881-4 0  9999,2 51790  53.2149  20.6891 0002167  36.8677 323.2464 15.08837261 41311,6917.889,95.438,541.253,538.255,0.0
51790.0,STARLINK-3631,PAYLOAD,2022-11-16 10:18:27,15.08838123,0.0002137,53.2154,17.7136,40.0658,320.0491,3.0811e-05,2.02e-06,0.0,0 STARLINK-3631,1 51790U 22017Y   22320.42949065  .00000202  00000-0  30811-4 0  9993,2 51790  53.2154  17.7136 0002137  40.0658 320.0491 15.08838123 41413,6917.886,95.438,541.229,538.273,0.0
51790.0,STARLINK-3631,PAYLOAD,2022-11-16 15:04:37,15.08837823,0.0002358,53.2161,16.8228,37.4539,322.6617,2.4948e-05,1.09e-06,0.0,0 STARLINK-3631,1 51790U 22017Y   22320.62821349  .00000109  00000-0  24948-4 0  9999,2 51790  53.2161  16.8228 0002358  37.4539 322.6617 15.08837823 41443,6917.887,95.438,541.383,538.121,0.0
51790.0,STARLINK-3631,PAYLOAD,2022-11-17 02:12:19,15.08846329,0.0002362,53.2157,14.7416,35.896,324.219,0.00012399,1.686e-05,0.0,0 STARLINK-3631,1 51790U 22017Y   22321.09188844  .00001686  00000-0  12399-3 0  9994,2 51790  53.2157  14.7416 0002362  35.8960 324.2190 15.08846329 41512,6917.861,95.437,541.36,538.092,0.0
51790.0,STARLINK-3631,PAYLOAD,2022-11-17 13:20:01,15.08844788,0.0002356,53.2155,12.6614,31.2151,328.898,0.00020631,2.997e-05,0.0,0 STARLINK-3631,1 51790U 22017Y   22321.55557031  .00002997  00000-0  20631-3 0  9997,2 51790  53.2155  12.6614 0002356  31.2151 328.8980 15.08844788 41583,6917.866,95.437,541.361,538.101,0.0
51790.0,STARLINK-3631,PAYLOAD,2022-11-17 14:55:24,15.08839214,0.0002316,53.2163,12.3626,35.8501,324.2646,0.00012163,1.648e-05,0.0,0 STARLINK-3631,1 51790U 22017Y   22321.62181247  .00001648  00000-0  12163-3 0  9990,2 51790  53.2163  12.3626 0002316  35.8501 324.2646 15.08839214 41595,6917.8830000000025,95.438,541.35,538.146,0.0
51790.0,STARLINK-3631,PAYLOAD,2022-11-18 10:00:02,15.08837545,0.0002423,53.2162,8.7944,35.5055,324.6098,0.00014133,1.962e-05,0.0,0 STARLINK-3631,1 51790U 22017Y   22322.41669426  .00001962  00000-0  14133-3 0  9996,2 51790  53.2162   8.7944 0002423  35.5055 324.6098 15.08837545 41710,6917.888000000001,95.438,541.429,538.077,0.0
51790.0,STARLINK-3631,PAYLOAD,2022-11-18 13:10:48,15.08837542,0.0002461,53.2163,8.1996,35.4922,324.6234,8.188399999999999e-05,1.015e-05,0.0,0 STARLINK-3631,1 51790U 22017Y   22322.54917445  .00001015  00000-0  81884-4 0  9994,2 51790  53.2163   8.1996 0002461  35.4922 324.6234 15.08837542 41737,6917.888000000001,95.438,541.455,538.05,0.0
51790.0,STARLINK-3631,PAYLOAD,2022-11-19 05:04:39,15.08853135,0.0002444,53.2163,5.2257,35.2525,324.8629,0.00026542,3.94e-05,0.0,0 STARLINK-3631,1 51790U 22017Y   22323.21156752  .00003940  00000-0  26542-3 0  9993,2 51790  53.2163   5.2257 0002444  35.2525 324.8629 15.08853135 41830,6917.84,95.437,541.396,538.015,0.0
51790.0,STARLINK-3631,PAYLOAD,2022-11-19 09:50:48,15.08853902,0.0002483,53.2164,4.334,35.3118,324.8038,0.00039082,5.94e-05,0.0,0 STARLINK-3631,1 51790U 22017Y   22323.41028709  .00005940  00000-0  39082-3 0  9990,2 51790  53.2164   4.3340 0002483  35.3118 324.8038 15.08853902 41865,6917.8380000000025,95.437,541.4209999999998,537.985,0.0
51790.0,STARLINK-3631,PAYLOAD,2022-11-19 19:23:07,15.08844469,0.0002581,53.2158,2.5499,31.789,328.3258,0.00012165,1.648e-05,0.0,0 STARLINK-3631,1 51790U 22017Y   22323.80772830  .00001648  00000-0  12165-3 0  9998,2 51790  53.2158   2.5499 0002581  31.7890 328.3258 15.08844469 41927,6917.8669999999975,95.437,541.5169999999998,537.946,0.0
